NORAD_CAT_ID,OBJECT_NAME,OBJECT_TYPE,EPOCH,MEAN_MOTION,ECCENTRICITY,INCLINATION,RA_OF_ASC_NODE,ARG_OF_PERICENTER,MEAN_ANOMALY,BSTAR,MEAN_MOTION_DOT,MEAN_MOTION_DDOT,TLE_LINE0,TLE_LINE1,TLE_LINE2,SEMIMAJOR_AXIS,PERIOD,APOGEE,PERIGEE,DECAYED
55935.0,STARLINK-5920,PAYLOAD,2023-09-01 20:07:39,14.98322458,0.0003016,69.998,83.7959,271.152,88.9293,0.00043059,5.047e-05,0.0,0 STARLINK-5920,1 55935U 23037X   23244.83865305  .00005047  00000-0  43059-3 0  9995,2 55935  69.9980  83.7959 0003016 271.1520  88.9293 14.98322458 26530,6950.216,96.107,574.177,569.985,0.0
55935.0,STARLINK-5920,PAYLOAD,2023-09-02 02:32:11,14.98341607,0.0003155,69.998,83.1225,271.6977,88.382,0.00015597,1.769e-05,0.0,0 STARLINK-5920,1 55935U 23037X   23245.10568469  .00001769  00000-0  15597-3 0  9990,2 55935  69.9980  83.1225 0003155 271.6977  88.3820 14.98341607 26576,6950.157,96.106,574.215,569.829,0.0
55935.0,STARLINK-5920,PAYLOAD,2023-09-02 08:56:44,14.98330728,0.0003147,69.9983,82.449,270.7699,89.31,6.1e-06,-2e-07,0.0,0 STARLINK-5920,1 55935U 23037X   23245.37273453 -.00000020  00000-0  61000-5 0  9997,2 55935  69.9983  82.4490 0003147 270.7699  89.3100 14.98330728 26616,6950.191,96.107,574.243,569.868,0.0
55935.0,STARLINK-5920,PAYLOAD,2023-09-02 13:45:08,14.98330736,0.0003168,69.9983,81.944,269.7885,90.2911,-1.3348e-05,-2.52e-06,0.0,0 STARLINK-5920,1 55935U 23037X   23245.57301440 -.00000252  00000-0 -13348-4 0  9996,2 55935  69.9983  81.9440 0003168 269.7885  90.2911 14.98330736 26309,6950.191,96.107,574.257,569.854,0.0
55935.0,STARLINK-5920,PAYLOAD,2023-09-02 21:45:48,14.98335421,0.0003174,69.9986,81.1025,270.1447,89.9348,1.1136e-06,-8e-07,0.0,0 STARLINK-5920,1 55935U 23037X   23245.90681004 -.00000080  00000-0  11136-5 0  9992,2 55935  69.9986  81.1025 0003174 270.1447  89.9348 14.98335421 26350,6950.176,96.107,574.247,569.835,0.0
55935.0,STARLINK-5920,PAYLOAD,2023-09-03 00:58:04,14.98337276,0.0003169,69.9987,80.7658,270.008,90.0715,1.3902e-05,7.3e-07,0.0,0 STARLINK-5920,1 55935U 23037X   23246.04032785  .00000073  00000-0  13902-4 0  9997,2 55935  69.9987  80.7658 0003169 270.0080  90.0715 14.98337276 26715,6950.17,96.107,574.238,569.833,0.0
55935.0,STARLINK-5920,PAYLOAD,2023-09-03 05:46:28,14.98334444,0.000316,69.9988,80.2608,269.964,90.1157,-2.4848e-05,-3.9e-06,0.0,0 STARLINK-5920,1 55935U 23037X   23246.24060969 -.00000390  00000-0 -24848-4 0  9999,2 55935  69.9988  80.2608 0003160 269.9640  90.1157 14.98334444 26407,6950.179,96.107,574.24,569.848,0.0
55935.0,STARLINK-5920,PAYLOAD,2023-09-04 05:48:29,14.98333791,0.0003145,69.999,77.7357,269.0729,91.007,-0.0001155,-1.471e-05,0.0,0 STARLINK-5920,1 55935U 23037X   23247.24200837 -.00001471  00000-0 -11550-3 0  9996,2 55935  69.9990  77.7357 0003145 269.0729  91.0070 14.98333791 26895,6950.181,96.107,574.232,569.86,0.0
55935.0,STARLINK-5920,PAYLOAD,2023-09-04 12:13:01,14.98347996,0.0003237,69.999,77.0626,268.8548,91.224,-0.00043508,-5.283e-05,0.0,0 STARLINK-5920,1 55935U 23037X   23247.50904532 -.00005283  00000-0 -43508-3 0  9991,2 55935  69.9990  77.0626 0003237 268.8548  91.2240 14.98347996 26595,6950.137,96.106,574.252,569.752,0.0
55935.0,STARLINK-5920,PAYLOAD,2023-09-04 18:37:35,14.98316795,0.0003104,69.9991,76.3895,268.3895,91.6909,-0.0001218,-1.546e-05,0.0,0 STARLINK-5920,1 55935U 23037X   23247.77610157 -.00001546  00000-0 -12180-3 0  9997,2 55935  69.9991  76.3895 0003104 268.3895  91.6909 14.98316795 26970,6950.234,96.108,574.256,569.941,0.0
55935.0,STARLINK-5920,PAYLOAD,2023-09-05 12:15:03,14.98321772,0.0002989,70.0,74.5382,269.8731,90.2085,-5.4917e-05,-7.48e-06,0.0,0 STARLINK-5920,1 55935U 23037X   23248.51046091 -.00000748  00000-0 -54917-4 0  9998,2 55935  70.0000  74.5382 0002989 269.8731  90.2085 14.98321772 27084,6950.218,96.108,574.161,570.006,0.0
55935.0,STARLINK-5920,PAYLOAD,2023-09-06 12:17:04,14.98320466,0.0003092,69.9999,72.0129,269.8974,90.1831,0.00010742,1.189e-05,0.0,0 STARLINK-5920,1 55935U 23037X   23249.51186146  .00001189  00000-0  10742-3 0  9990,2 55935  69.9999  72.0129 0003092 269.8974  90.1831 14.98320466 27239,6950.222,96.108,574.236,569.938,0.0
55935.0,STARLINK-5920,PAYLOAD,2023-09-06 13:53:12,14.98321124,0.0003092,69.9999,71.8445,269.8023,90.2781,0.00011276,1.252e-05,0.0,0 STARLINK-5920,1 55935U 23037X   23249.57862126  .00001252  00000-0  11276-3 0  9999,2 55935  69.9999  71.8445 0003092 269.8023  90.2781 14.98321124 26902,6950.22,96.108,574.234,569.936,0.0
55935.0,STARLINK-5920,PAYLOAD,2023-09-07 05:54:33,14.98328296,0.0003108,70.0,70.161,269.2392,90.8411,0.00012271,1.371e-05,0.0,0 STARLINK-5920,1 55935U 23037X   23250.24621850  .00001371  00000-0  12271-3 0  9990,2 55935  70.0000  70.1610 0003108 269.2392  90.8411 14.98328296 27347,6950.198,96.107,574.223,569.903,0.0
55935.0,STARLINK-5920,PAYLOAD,2023-09-07 12:19:05,14.98330971,0.0003112,69.9997,69.4874,269.0023,91.078,0.00013212,1.484e-05,0.0,0 STARLINK-5920,1 55935U 23037X   23250.51325648  .00001484  00000-0  13212-3 0  9997,2 55935  69.9997  69.4874 0003112 269.0023  91.0780 14.98330971 27048,6950.19,96.107,574.218,569.892,0.0
55935.0,STARLINK-5920,PAYLOAD,2023-09-07 17:07:29,14.98334777,0.0003083,69.9996,68.9822,268.6577,91.4229,0.00012297,1.375e-05,0.0,0 STARLINK-5920,1 55935U 23037X   23250.71353395  .00001375  00000-0  12297-3 0  9990,2 55935  69.9996  68.9822 0003083 268.6577  91.4229 14.98334777 27073,6950.178,96.107,574.186,569.9,0.0
55935.0,STARLINK-5920,PAYLOAD,2023-09-07 23:32:01,14.98336645,0.000309,69.9996,68.3089,268.9008,91.1797,0.00013308,1.495e-05,0.0,0 STARLINK-5920,1 55935U 23037X   23250.98057150  .00001495  00000-0  13308-3 0  9996,2 55935  69.9996  68.3089 0003090 268.9008  91.1797 14.98336645 27457,6950.172,96.107,574.185,569.89,0.0
55935.0,STARLINK-5920,PAYLOAD,2023-09-08 13:57:13,14.98336956,0.0003024,69.9993,66.7939,269.1529,90.9284,5.0732e-05,5.12e-06,0.0,0 STARLINK-5920,1 55935U 23037X   23251.58141100  .00000512  00000-0  50732-4 0  9994,2 55935  69.9993  66.7939 0003024 269.1529  90.9284 14.98336956 27204,6950.171,96.107,574.138,569.935,0.0
55935.0,STARLINK-5920,PAYLOAD,2023-09-08 18:45:38,14.98338009,0.000308,69.9999,66.2894,270.1589,89.9217,3.4206e-05,3.15e-06,0.0,0 STARLINK-5920,1 55935U 23037X   23251.78168985  .00000315  00000-0  34206-4 0  9995,2 55935  69.9999  66.2894 0003080 270.1589  89.9217 14.98338009 27233,6950.168,96.106,574.174,569.892,0.0
55935.0,STARLINK-5920,PAYLOAD,2023-09-08 23:34:01,14.98340043,0.000309,69.9999,65.7844,270.2949,89.7856,5.7697e-05,5.96e-06,0.0,0 STARLINK-5920,1 55935U 23037X   23251.98196668  .00000596  00000-0  57697-4 0  9996,2 55935  69.9999  65.7844 0003090 270.2949  89.7856 14.98340043 27603,6950.162,96.106,574.174,569.879,0.0
55935.0,STARLINK-5920,PAYLOAD,2023-09-09 13:59:14,14.98339538,0.0002725,70.0005,64.2701,271.477,88.6077,-0.0001392,-1.754e-05,0.0,0 STARLINK-5920,1 55935U 23037X   23252.58281054 -.00001754  00000-0 -13920-3 0  9996,2 55935  70.0005  64.2701 0002725 271.4770  88.6077 14.98339538 27351,6950.163,96.106,573.922,570.134,0.0
55935.0,STARLINK-5920,PAYLOAD,2023-09-09 18:47:38,14.98335095,0.0003011,70.0007,63.7654,274.9024,85.1792,-5.8237e-05,-7.88e-06,0.0,0 STARLINK-5920,1 55935U 23037X   23252.78308995 -.00000788  00000-0 -58237-4 0  9999,2 55935  70.0007  63.7654 0003011 274.9024  85.1792 14.98335095 27724,6950.177,96.107,574.135,569.949,0.0
55935.0,STARLINK-5920,PAYLOAD,2023-09-10 04:24:27,14.98317019,0.000309,70.0007,62.7554,267.5245,92.556,0.00026189,3.032e-05,0.0,0 STARLINK-5920,1 55935U 23037X   23253.18365214  .00003032  00000-0  26189-3 0  9994,2 55935  70.0007  62.7554 0003090 267.5245  92.5560 14.98317019 27789,6950.233,96.108,574.246,569.95,0.0
55935.0,STARLINK-5920,PAYLOAD,2023-09-10 14:01:15,14.98335912,0.0002898,70.0008,61.7455,267.4758,92.6069,-1.1817e-05,-2.34e-06,0.0,0 STARLINK-5920,1 55935U 23037X   23253.58420452 -.00000234  00000-0 -11817-4 0  9990,2 55935  70.0008  61.7455 0002898 267.4758  92.6069 14.98335912 27509,6950.175,96.107,574.054,570.025,0.0
55935.0,STARLINK-5920,PAYLOAD,2023-09-10 18:49:39,14.98334289,0.0002922,70.0008,61.2403,268.8556,91.2268,-2.6158e-05,-4.05e-06,0.0,0 STARLINK-5920,1 55935U 23037X   23253.78448536 -.00000405  00000-0 -26158-4 0  9999,2 55935  70.0008  61.2403 0002922 268.8556  91.2268 14.98334289 27878,6950.18,96.107,574.075,570.014,0.0
55935.0,STARLINK-5920,PAYLOAD,2023-09-11 14:03:16,14.98328458,0.0002934,70.001,59.2202,269.1511,90.9312,-1.3902e-05,-2.59e-06,0.0,0 STARLINK-5920,1 55935U 23037X   23254.58560702 -.00000259  00000-0 -13902-4 0  9998,2 55935  70.0010  59.2202 0002934 269.1511  90.9312 14.98328458 27656,6950.198,96.107,574.102,570.023,0.0
55935.0,STARLINK-5920,PAYLOAD,2023-09-11 20:27:48,14.98330683,0.000292,70.001,58.5468,269.6106,90.4718,6.7846e-06,-1.2e-07,0.0,0 STARLINK-5920,1 55935U 23037X   23254.85264506 -.00000012  00000-0  67846-5 0  9994,2 55935  70.0010  58.5468 0002920 269.6106  90.4718 14.98330683 28033,6950.191,96.107,574.085,570.026,0.0
55935.0,STARLINK-5920,PAYLOAD,2023-09-12 12:29:09,14.98330188,0.0003003,70.0011,56.8633,270.2645,89.817,-1.2463e-05,-2.42e-06,0.0,0 STARLINK-5920,1 55935U 23037X   23255.52024509 -.00000242  00000-0 -12463-4 0  9996,2 55935  70.0011  56.8633 0003003 270.2645  89.8170 14.98330188 27794,6950.192,96.107,574.144,569.97,0.0
55935.0,STARLINK-5920,PAYLOAD,2023-09-12 20:29:49,14.98332561,0.0002902,70.0013,56.0222,265.0359,95.0469,-1.3257e-06,-1.09e-06,0.0,0 STARLINK-5920,1 55935U 23037X   23255.85404267 -.00000109  00000-0 -13257-5 0  9990,2 55935  70.0013  56.0222 0002902 265.0359  95.0469 14.98332561 27846,6950.185,96.107,574.067,570.033,0.0
55935.0,STARLINK-5920,PAYLOAD,2023-09-13 12:31:09,14.9833275,0.0002976,70.001,54.3382,272.2234,87.8584,5.1851e-05,5.26e-06,0.0,0 STARLINK-5920,1 55935U 23037X   23256.52163956  .00000526  00000-0  51851-4 0  9994,2 55935  70.0010  54.3382 0002976 272.2234  87.8584 14.98332750 27942,6950.184,96.107,574.118,569.981,0.0
